OBJECT_NAME,OBJECT_ID,EPOCH,MEAN_MOTION,ECCENTRICITY,INCLINATION,RA_OF_ASC_NODE,ARG_OF_PERICENTER,MEAN_ANOMALY,EPHEMERIS_TYPE,CLASSIFICATION_TYPE,NORAD_CAT_ID,ELEMENT_SET_NO,REV_AT_EPOCH,BSTAR,MEAN_MOTION_DOT,MEAN_MOTION_DDOT
STARLINK-1872,2020-074D,2022-12-14T19:25:35.882112,15.54442851,.0004602,53.0525,196.0732,145.2119,214.9192,0,U,46742,999,11907,.69406E-3,.46221E-3,0
STARLINK-1894,2020-074F,2022-12-15T00:51:02.235456,15.06401448,.0001588,53.0520,221.7811,53.7234,306.3901,0,U,46744,999,11872,.10745E-3,.1319E-4,0
STARLINK-1905,2020-074H,2022-12-15T02:49:10.785216,15.06396009,.0001701,53.0540,221.4180,62.0430,298.0731,0,U,46746,999,11875,.48321E-4,.438E-5,0
STARLINK-1908,2020-074J,2022-12-14T18:24:57.246336,15.06395231,.0001444,53.0533,222.9878,71.8160,288.2986,0,U,46747,999,11868,.34664E-3,.4885E-4,0
STARLINK-1910,2020-074K,2022-12-15T00:57:41.949504,15.06410276,.0001123,53.0527,221.7591,97.6308,262.4809,0,U,46748,999,11874,.13601E-3,.1746E-4,0
STARLINK-1911,2020-074L,2022-12-14T09:12:55.991232,15.06401812,.0001487,53.0573,224.7150,65.0769,295.0374,0,U,46749,999,11862,.1523E-3,.1988E-4,0
STARLINK-1920,2020-074N,2022-12-14T20:16:25.929984,15.06384699,.0001571,53.0536,222.6516,80.9831,279.1335,0,U,46751,999,11869,-.33545E-4,-.781E-5,0
STARLINK-1921,2020-074P,2022-12-14T18:56:46.709664,15.06403553,.0001779,53.0518,222.8932,76.6060,283.5128,0,U,46752,999,11868,.1335E-3,.1708E-4,0
STARLINK-1922,2020-074Q,2022-12-14T18:09:01.157760,15.06394923,.0001874,53.0535,223.0431,56.0946,304.0221,0,U,46753,999,11868,.14802E-3,.1923E-4,0
STARLINK-1923,2020-074R,2022-12-15T00:41:47.712480,15.06395673,.0001636,53.0539,221.8112,82.8175,277.3000,0,U,46754,999,11873,.43027E-4,.359E-5,0
STARLINK-1924,2020-074S,2022-12-15T02:24:37.976256,15.06380651,.0002097,53.0536,226.4872,41.5552,318.5596,0,U,46755,999,11867,.49015E-4,.448E-5,0
STARLINK-1925,2020-074T,2022-12-14T09:36:13.387680,15.06404613,.0001341,53.0552,230.0268,73.5357,286.5779,0,U,46756,999,11857,.105E-3,.1283E-4,0
STARLINK-1926,2020-074U,2022-12-14T19:30:39.522816,15.06396764,.0001526,53.0518,228.0114,76.9777,283.1382,0,U,46757,999,11861,.11303E-3,.1402E-4,0
STARLINK-1928,2020-074V,2022-12-14T19:35:55.559328,15.06402977,.0001678,53.0545,227.7518,54.6421,305.4725,0,U,46758,999,11862,.28481E-4,.143E-5,0
STARLINK-1833,2020-074W,2022-12-14T22:40:22.437696,15.06398933,.0001624,53.0527,237.2028,63.6342,296.4813,0,U,46759,999,11823,.4267E-3,.608E-4,0
STARLINK-1896,2020-074X,2022-12-14T22:56:17.483424,15.06403489,.0001647,53.0541,237.1555,71.9408,288.1760,0,U,46760,999,11852,.1149E-3,.143E-4,0
STARLINK-1902,2020-074AA,2022-12-14T18:03:52.069536,15.76729288,.0001913,53.0424,132.1227,14.8892,345.2184,0,U,46763,999,11997,.16152E-4,.1988E-4,0
STARLINK-1903,2020-074AB,2022-12-14T19:34:36.094656,15.06409923,.0001655,53.0551,237.7807,55.0653,305.0492,0,U,46764,999,11849,-.92935E-4,-.1666E-4,0
STARLINK-1906,2020-074AC,2022-12-15T01:40:50.280960,15.06394061,.0001433,53.0537,236.6128,77.3221,282.7928,0,U,46765,999,11824,.88905E-4,.1043E-4,0
STARLINK-1916,2020-074AD,2022-12-14T19:08:05.037792,15.06391220,.0001703,53.0512,237.8643,71.9248,288.1927,0,U,46766,999,11848,-.28908E-4,-.712E-5,0
STARLINK-1917,2020-074AE,2022-12-15T03:48:13.184352,15.06396213,.0001354,53.0538,236.2282,67.5799,292.5334,0,U,46767,999,11854,.28577E-3,.3977E-4,0
STARLINK-1918,2020-074AF,2022-12-14T10:22:35.897952,15.06395992,.0001879,53.0550,239.4891,49.9677,310.1476,0,U,46768,999,11842,.60181E-4,.615E-5,0
STARLINK-1932,2020-074AH,2022-12-14T02:35:36.510144,15.06403870,.0001714,53.0530,241.5086,53.0340,307.0805,0,U,46770,999,11836,.24584E-3,.3382E-4,0
STARLINK-1936,2020-074AK,2022-12-14T20:05:04.945056,15.06401838,.0001676,53.0523,237.6743,68.2705,291.8462,0,U,46772,999,11848,.12808E-3,.1627E-4,0
STARLINK-1939,2020-074AM,2022-12-14T21:59:50.029728,15.26208121,.0007033,53.0529,212.7142,135.0564,225.1004,0,U,46774,999,11885,.19652E-2,.51567E-3,0
STARLINK-1946,2020-074AP,2022-12-15T03:23:40.866144,15.76719947,.0001512,53.0438,137.2575,60.9677,299.1493,0,U,46776,999,11960,.59612E-5,.32E-5,0
STARLINK-1832,2020-074AT,2022-12-15T01:20:16.470816,15.06399446,.0001874,53.0538,211.7018,53.4340,306.6821,0,U,46780,999,11859,.62626E-4,.651E-5,0
STARLINK-1834,2020-074AU,2022-12-14T22:34:23.975328,15.06402866,.0001419,53.0534,222.2162,72.2704,287.8440,0,U,46781,999,11844,.15177E-3,.198E-4,0
