STARLINK-1872           
1 46742U 20074D   22348.80944308  .00046221  00000+0  69406-3 0  9993
2 46742  53.0525 196.0732 0004602 145.2119 214.9192 15.54442851119073
STARLINK-1894           
1 46744U 20074F   22349.03544254  .00001319  00000+0  10745-3 0  9998
2 46744  53.0520 221.7811 0001588  53.7234 306.3901 15.06401448118724
STARLINK-1905           
1 46746U 20074H   22349.11748594  .00000438  00000+0  48321-4 0  9995
2 46746  53.0540 221.4180 0001701  62.0430 298.0731 15.06396009118759
STARLINK-1908           
1 46747U 20074J   22348.76732924  .00004885  00000+0  34664-3 0  9990
2 46747  53.0533 222.9878 0001444  71.8160 288.2986 15.06395231118685
STARLINK-1910           
1 46748U 20074K   22349.04006886  .00001746  00000+0  13601-3 0  9995
2 46748  53.0527 221.7591 0001123  97.6308 262.4809 15.06410276118744
STARLINK-1911           
1 46749U 20074L   22348.38398138  .00001988  00000+0  15230-3 0  9994
2 46749  53.0573 224.7150 0001487  65.0769 295.0374 15.06401812118625
STARLINK-1920           
1 46751U 20074N   22348.84474456 -.00000781  00000+0 -33545-4 0  9998
2 46751  53.0536 222.6516 0001571  80.9831 279.1335 15.06384699118690
STARLINK-1921           
1 46752U 20074P   22348.78942951  .00001708  00000+0  13350-3 0  9991
2 46752  53.0518 222.8932 0001779  76.6060 283.5128 15.06403553118680
STARLINK-1922           
1 46753U 20074Q   22348.75626340  .00001923  00000+0  14802-3 0  9992
2 46753  53.0535 223.0431 0001874  56.0946 304.0221 15.06394923118681
STARLINK-1923           
1 46754U 20074R   22349.02902445  .00000359  00000+0  43027-4 0  9991
2 46754  53.0539 221.8112 0001636  82.8175 277.3000 15.06395673118731
STARLINK-1924           
1 46755U 20074S   22349.10043954  .00000448  00000+0  49015-4 0  9994
2 46755  53.0536 226.4872 0002097  41.5552 318.5596 15.06380651118677
STARLINK-1925           
1 46756U 20074T   22348.40015495  .00001283  00000+0  10500-3 0  9990
2 46756  53.0552 230.0268 0001341  73.5357 286.5779 15.06404613118576
STARLINK-1926           
1 46757U 20074U   22348.81295744  .00001402  00000+0  11303-3 0  9998
2 46757  53.0518 228.0114 0001526  76.9777 283.1382 15.06396764118619
STARLINK-1928           
1 46758U 20074V   22348.81661527  .00000143  00000+0  28481-4 0  9992
2 46758  53.0545 227.7518 0001678  54.6421 305.4725 15.06402977118625
STARLINK-1833           
1 46759U 20074W   22348.94470414  .00006080  00000+0  42670-3 0  9991
2 46759  53.0527 237.2028 0001624  63.6342 296.4813 15.06398933118231
STARLINK-1896           
1 46760U 20074X   22348.95575791  .00001430  00000+0  11490-3 0  9998
2 46760  53.0541 237.1555 0001647  71.9408 288.1760 15.06403489118527
STARLINK-1902           
1 46763U 20074AA  22348.75268599  .00001988  00000+0  16152-4 0  9993
2 46763  53.0424 132.1227 0001913  14.8892 345.2184 15.76729288119979
STARLINK-1903           
1 46764U 20074AB  22348.81569554 -.00001666  00000+0 -92935-4 0  9994
2 46764  53.0551 237.7807 0001655  55.0653 305.0492 15.06409923118498
STARLINK-1906           
1 46765U 20074AC  22349.07002640  .00001043  00000+0  88905-4 0  9991
2 46765  53.0537 236.6128 0001433  77.3221 282.7928 15.06394061118243
STARLINK-1916           
1 46766U 20074AD  22348.79728053 -.00000712  00000+0 -28908-4 0  9994
2 46766  53.0512 237.8643 0001703  71.9248 288.1927 15.06391220118480
STARLINK-1917           
1 46767U 20074AE  22349.15848593  .00003977  00000+0  28577-3 0  9993
2 46767  53.0538 236.2282 0001354  67.5799 292.5334 15.06396213118540
STARLINK-1918           
1 46768U 20074AF  22348.43235993  .00000615  00000+0  60181-4 0  9992
2 46768  53.0550 239.4891 0001879  49.9677 310.1476 15.06395992118421
STARLINK-1932           
1 46770U 20074AH  22348.10806146  .00003382  00000+0  24584-3 0  9993
2 46770  53.0530 241.5086 0001714  53.0340 307.0805 15.06403870118362
STARLINK-1936           
1 46772U 20074AK  22348.83686279  .00001627  00000+0  12808-3 0  9994
2 46772  53.0523 237.6743 0001676  68.2705 291.8462 15.06401838118486
STARLINK-1939           
1 46774U 20074AM  22348.91655127  .00051567  00000+0  19652-2 0  9994
2 46774  53.0529 212.7142 0007033 135.0564 225.1004 15.26208121118855
STARLINK-1946           
1 46776U 20074AP  22349.14144521  .00000320  00000+0  59612-5 0  9997
2 46776  53.0438 137.2575 0001512  60.9677 299.1493 15.76719947119609
STARLINK-1832           
1 46780U 20074AT  22349.05574619  .00000651  00000+0  62626-4 0  9992
2 46780  53.0538 211.7018 0001874  53.4340 306.6821 15.06399446118597
STARLINK-1834           
1 46781U 20074AU  22348.94055527  .00001980  00000+0  15177-3 0  9996
2 46781  53.0534 222.2162 0001419  72.2704 287.8440 15.06402866118441
